{"type":"FeatureCollection","crs":{"type":"name","properties":{"name":"urn:ogc:def:crs:OGC:1.3:CRS84"}},"features":[{"type":"Feature","properties":{"shapeName":"Bengo","shapeISO":"AO-BGO","shapeID":"26408823B1629995979425","shapeGroup":"AGO","shapeType":"ADM1"},"geometry":{"type":"MultiPolygon","coordinates":[[[[13.394026756000073,-8.750798224999926],[13.394026756000073,-8.750798224999926]]],[[[13.127082825000059,-7.837359904999971],[13.127082825000059,-7.837359904999971]]],[[[13.139836312000057,-7.829306125999949],[13.139836312000057,-7.829306125999949]]],[[[13.115973473000054,-7.821805],[13.115973473000054,-7.821805]]],[[[13.124029160000077,-7.812917232999951],[13.124029160000077,-7.812917232999951]]],[[[13.824855805000027,-7.619830131999947],[13.745534897000027,-7.663395881999975],[13.648571015000073,-7.682746886999951],[13.536472321000076,-7.718499183999938],[13.441820145000065,-7.718895911999937],[13.291426659000024,-7.74835681899998],[13.217544556000064,-7.767165183999964],[13.09458255900006,-7.810417174999941],[13.108471871000063,-7.836250781999979],[13.116529465000042,-7.815416812999956],[13.147360803000026,-7.819582938999929],[13.13958358900004,-7.835415839999939],[13.131806374000064,-7.85236215599997],[13.115415573000064,-7.841528892999975],[13.110137940000072,-7.863193988999967],[13.145694733000028,-7.924582957999974],[13.183473588000027,-7.988193988999967],[13.17874908500005,-7.99736022899998],[13.20374870300003,-8.042083739999953],[13.24152755800003,-8.109305381999945],[13.262083054000072,-8.15486240399997],[13.28986072500004,-8.202362060999974],[13.359861374000047,-8.317084311999963],[13.38597297800004,-8.413471221999941],[13.376527787000043,-8.473750113999927],[13.346528053000043,-8.467361449999942],[13.373195648000035,-8.555693625999936],[13.392639161000034,-8.620139121999955],[13.399583817000064,-8.732916831999944],[13.437749566000036,-8.758880889999944],[13.51500371700007,-8.775690821999945],[13.569725410000046,-8.84185757299997],[13.68665790600005,-8.866687774999946],[13.894762993000029,-8.93760204299997],[14.090644836000024,-8.922418593999964],[14.329077722000022,-8.884728431999974],[14.414831162000041,-8.921453475999954],[14.604408264000028,-8.854417800999954],[14.84368801100004,-8.820996283999932],[14.985022546000039,-8.618297576999964],[14.977207184000065,-8.471310615999926],[14.88073444400004,-8.359688758999937],[14.780651094000063,-8.41229915599996],[14.635849953000047,-8.278896331999931],[14.716363908000062,-8.023488044999965],[14.526397705000022,-7.903988837999975],[14.315161706000026,-7.842833041999938],[14.136403084000051,-7.635368823999954],[13.911690713000041,-7.62658500699996],[13.824855805000027,-7.619830131999947]]]]}},{"type":"Feature","properties":{"shapeName":"Benguela","shapeISO":"AO-BGU","shapeID":"26408823B75281746675067","shapeGroup":"AGO","shapeType":"ADM1"},"geometry":{"type":"MultiPolygon","coordinates":[[[[12.522359849000054,-13.452083587999937],[12.522359849000054,-13.452083587999937]]],[[[12.542916299000069,-13.41874885599998],[12.542916299000069,-13.41874885599998]]],[[[12.964304924000032,-12.934306144999937],[12.964304924000032,-12.934306144999937]]],[[[12.95041561100004,-12.896806716999947],[12.95041561100004,-12.896806716999947]]],[[[12.947916031000034,-12.889583587999937],[12.947916031000034,-12.889583587999937]]],[[[15.028139115000045,-12.20698165899995],[14.791154861000052,-12.09675311999996],[14.539935112000023,-11.877429961999951],[14.33754158000005,-11.911093711999968],[14.14826488600005,-11.907027244999938],[13.973207474000048,-11.793853759999934],[13.792638780000061,-11.787637710999945],[13.77736187000005,-11.859027862999937],[13.769861221000042,-11.907361030999937],[13.749861717000044,-11.969305991999931],[13.722917557000073,-12.019862174999957],[13.715970993000042,-12.04930591599998],[13.690973282000073,-12.12986183199996],[13.669584274000044,-12.160694121999938],[13.655694962000041,-12.227639197999963],[13.630139351000025,-12.275973319999935],[13.568194389000041,-12.351249694999979],[13.561528206000048,-12.33486080199998],[13.555138589000023,-12.335416793999968],[13.524582863000035,-12.368195533999938],[13.483194351000066,-12.441250800999967],[13.480139733000044,-12.462360381999929],[13.421526909000022,-12.546528815999977],[13.342638969000063,-12.613194465999982],[13.306250572000067,-12.590971946999957],[13.269583702000034,-12.586527823999972],[13.26652813100003,-12.600417136999965],[13.202361108000048,-12.61180591599998],[13.16819381700003,-12.62041568799998],[13.13458442800004,-12.672081946999981],[13.056805612000062,-12.741249083999946],[12.99847221500005,-12.788473128999954],[12.937083245000053,-12.848749160999944],[12.950971604000074,-12.901245116999974],[12.965139389000058,-12.938750266999932],[12.965695381000046,-12.982360839999956],[12.931248665000055,-13.019027709999932],[12.909304619000068,-13.044861793999928],[12.883194923000076,-13.082917212999973],[12.834861756000066,-13.13319396999998],[12.792637826000032,-13.17819404599993],[12.762638092000032,-13.199860572999967],[12.74291706200006,-13.212081908999949],[12.717361451000045,-13.219582557999956],[12.707637787000067,-13.229305266999972],[12.671526909000022,-13.25791454299997],[12.642360687000064,-13.288749694999979],[12.647917748000054,-13.324028968999926],[12.623193741000023,-13.352639197999963],[12.58791732900005,-13.397640227999943],[12.566528321000021,-13.410695075999968],[12.549028398000075,-13.41708278699997],[12.533471108000072,-13.437360763999948],[12.539028169000062,-13.456804275999957],[12.540140153000038,-13.497361182999953],[12.546806336000031,-13.528206824999927],[12.851119995000033,-13.590549468999939],[13.072859765000032,-13.516474723999977],[13.28683376400005,-13.559638976999963],[13.366241455000022,-13.78231716199997],[13.57056903800003,-13.847884177999958],[13.756950379000045,-13.839867591999962],[14.023070335000057,-13.847039222999967],[14.34131336200005,-13.871133803999953],[14.48218631800006,-13.615261077999946],[14.733041763000074,-13.643288611999935],[14.984319688000028,-13.532991408999976],[15.073833467000043,-13.386879920999945],[14.937067032000073,-13.116619109999931],[14.837233544000071,-12.830533980999974],[14.848250390000032,-12.647774695999942],[15.075827600000025,-12.516939162999961],[15.023050308000052,-12.311968802999957],[15.028139115000045,-12.20698165899995]]]]}},{"type":"Feature","properties":{"shapeName":"Bié","shapeISO":"AO-BIE","shapeID":"26408823B27508642812365","shapeGroup":"AGO","shapeType":"ADM1"},"geometry":{"type":"Polygon","coordinates":[[[18.767398834000062,-10.971386908999932],[18.76141929700003,-11.113307952999946],[18.774208069000053,-11.240267753999944],[18.840261459000033,-11.33610153199993],[18.667682649000028,-11.38170146899995],[18.43130874600007,-11.539550780999946],[18.189931871000056,-11.548207282999954],[18.084783555000058,-11.54016876199995],[18.00460243300006,-11.519068717999971],[17.914714814000035,-11.521026610999968],[17.885019302000046,-11.407689094999967],[17.84508132900004,-11.537152289999938],[17.63063240200006,-11.717201232999969],[17.514394760000073,-11.699164390999954],[17.509126664000064,-11.612494468999955],[17.496919632000072,-11.518044471999929],[17.50524139500004,-11.48637580899998],[17.521602631000064,-11.40081119499996],[17.47249794100003,-11.31581306499993],[17.428657532000045,-11.238866805999976],[17.424766542000043,-11.181641578999972],[17.427520752000078,-11.066625594999948],[17.381174088000023,-10.962733268999955],[17.290721894000058,-10.862733840999965],[17.17838287400002,-10.85164737699995],[17.109029771000053,-10.819987296999955],[17.015270233000024,-10.79055881499994],[16.84552192700005,-10.770036696999966],[16.74038887100005,-10.722546576999946],[16.657991409000033,-10.65477466599998],[16.628839494000033,-10.580597877999935],[16.57505989200007,-10.643401145999974],[16.505474092000043,-10.71481800099997],[16.28449630700004,-10.88017272899998],[16.05241012700003,-10.998290061999967],[15.911829948000047,-11.111378669999965],[15.796744347000072,-11.321954726999934],[15.921496391000062,-11.490533828999958],[16.106193542000028,-11.472164153999927],[16.307516098000065,-11.558518409999976],[16.38265419100003,-11.67572402999997],[16.457801820000043,-11.742654799999968],[16.515743256000064,-11.849034308999933],[16.58533287100005,-11.967355727999973],[16.521503449000022,-12.056805610999959],[16.484853745000066,-12.155973433999975],[16.349721910000028,-12.256817817999945],[16.386566163000055,-12.36153221099994],[16.306280137000044,-12.584588050999969],[16.463773727000046,-12.739562034999949],[16.513904572000058,-12.891781806999973],[16.54509925800005,-13.158438682999929],[16.542524338000078,-13.28149700199998],[16.53373336800007,-13.572881698999936],[16.49365615800002,-13.743165015999978],[16.487728120000043,-13.879830359999971],[16.574495316000025,-14.007327079999982],[16.833124161000057,-14.033974647999969],[17.016820908000057,-14.06896209699994],[17.193206787000065,-14.264785766999978],[17.31059837300006,-14.280611037999961],[17.353698730000076,-14.148383140999954],[17.497814178000056,-14.010595321999972],[17.654630661000056,-13.989468574999933],[17.77983474800004,-13.905569076999939],[17.786872865000078,-13.687230109999973],[17.95564842300007,-13.573052405999931],[17.93684005700004,-13.394714354999962],[18.072601318000068,-13.218866347999949],[18.126209260000053,-13.047189712999966],[18.15871620200005,-12.884958266999945],[18.318307877000052,-12.718823432999955],[18.427112580000028,-12.518799781999974],[18.621372224000027,-12.328483581999933],[18.720439912000074,-12.203180312999962],[18.844194412000036,-11.953971862999936],[18.922990799000047,-11.777544021999972],[19.026760102000026,-11.693347930999948],[19.096120834000033,-11.53608703599997],[19.191558839000038,-11.415491103999955],[19.18736648600003,-11.212408065999966],[18.964803696000047,-11.087149619999934],[18.767398834000062,-10.971386908999932]]]}},{"type":"Feature","properties":{"shapeName":"Cabinda","shapeISO":"AO-CAB","shapeID":"26408823B25821416016710","shapeGroup":"AGO","shapeType":"ADM1"},"geometry":{"type":"Polygon","coordinates":[[[12.794997807000072,-4.411489457999949],[12.764497148000032,-4.41198290799997],[12.734069810000051,-4.412443712999959],[12.71973384200004,-4.407883152999943],[12.781325895000066,-4.488432468999974],[12.742171032000044,-4.491991733999953],[12.699654986000041,-4.477841642999977],[12.686282414000061,-4.494735815999945],[12.671458373000064,-4.511796550999975],[12.664772088000063,-4.529190410999945],[12.663487179000072,-4.539374504999955],[12.645760194000047,-4.554031984999938],[12.556580406000023,-4.574667199999965],[12.520194944000025,-4.583880609999937],[12.481864319000067,-4.572216092999952],[12.453818354000077,-4.587933453999938],[12.42597591200007,-4.607977237999933],[12.394612134000056,-4.608901380999953],[12.38795348900004,-4.633826367999973],[12.398624503000065,-4.649964748999935],[12.384178792000057,-4.680199885999969],[12.372695552000039,-4.709291827999948],[12.359962544000041,-4.744432698999958],[12.338950221000061,-4.777845731999946],[12.301702935000037,-4.806749606999972],[12.28115383200003,-4.804623991999961],[12.241248365000047,-4.814448367999944],[12.233030019000068,-4.799146296999936],[12.19759336900006,-4.790754325999956],[12.111249925000038,-5.171527862999937],[12.12013816800004,-5.175416945999928],[12.109862328000077,-5.156527041999937],[12.118749619000027,-5.163194179999948],[12.129304887000046,-5.172081946999981],[12.13624954200003,-5.173193931999947],[12.147359849000054,-5.190971850999972],[12.138750077000054,-5.193749904999947],[12.135692597000059,-5.204583167999942],[12.132361412000023,-5.242362021999952],[12.174306870000066,-5.330694198999936],[12.205416680000042,-5.41263818699997],[12.220417977000068,-5.555139064999935],[12.171527863000051,-5.567917823999949],[12.145693779000055,-5.639027118999934],[12.168472291000057,-5.719861030999937],[12.212677,-5.758498],[12.253542,-5.751763],[12.527423,-5.170913],[12.533118,-5.14482],[12.52137,-5.141102],[12.50977800100003,-5.135576],[12.490826001000073,-5.133055],[12.470131001000027,-5.118962],[12.462482,-5.093381],[12.478775001000031,-5.07399800099995],[12.490674,-5.066794],[12.501561,-5.052501],[12.512747001000037,-5.046448],[12.525912,-5.047368],[12.530009,-5.058968],[12.542576,-5.052984],[12.547547,-5.043985000999953],[12.556961,-5.036919],[12.566072,-5.041485],[12.574727,-5.030599],[12.585019001000035,-5.022806],[12.602098001000059,-5.025170000999935],[12.607846,-5.009984],[12.619626,-4.995251000999929],[12.622727,-4.960640000999945],[12.646251001000053,-4.946362000999954],[12.674271,-4.956729],[12.697758001000068,-4.951871],[12.724089,-4.936602],[12.738626,-4.899462000999961],[12.762662,-4.874086],[12.780972001000066,-4.873477],[12.80524900100005,-4.850491000999966],[12.814883001000055,-4.837503000999959],[12.818947,-4.814601],[12.83088,-4.781475000999933],[12.850751,-4.766829000999962],[12.853685,-4.750382],[12.874651001000075,-4.760502],[12.881527,-4.746077],[12.910467,-4.741768],[12.92845600100003,-4.740587],[12.945871001000057,-4.724543],[12.970748,-4.718257],[13.009188,-4.706129],[13.032068,-4.70521],[13.045799001000034,-4.683432],[13.072116,-4.686792],[13.099088124000048,-4.67942564699996],[13.066350572000033,-4.652217051999969],[13.031169662000025,-4.615129582999941],[12.970715527000038,-4.535236905999966],[12.91744974200003,-4.48631426999998],[12.87569402400004,-4.444910009999944],[12.833333001000028,-4.41808799699993],[12.794997807000072,-4.411489457999949]]]}},{"type":"Feature","properties":{"shapeName":"Cunene","shapeISO":"AO-CNN","shapeID":"26408823B93569072225888","shapeGroup":"AGO","shapeType":"ADM1"},"geometry":{"type":"Polygon","coordinates":[[[16.748420716000055,-15.162325858999964],[16.394989014000032,-15.20124244699997],[16.139644623000038,-15.389046668999981],[15.845053674000042,-15.39129352599997],[15.647565842000063,-15.43825626399996],[15.446293832000038,-15.587714194999933],[15.28477573400005,-15.862997054999937],[15.138338089000058,-16.066326140999934],[14.932484627000065,-15.915222167999957],[14.739229202000047,-15.868836402999932],[14.282681465000053,-16.050409316999946],[14.05793380700004,-16.180334090999963],[13.86289215100004,-16.19112586999995],[13.648604393000028,-16.361679076999962],[13.432127953000077,-16.298069],[13.335599899000044,-16.36364555399996],[13.260743142000024,-16.420322417999955],[13.257611275000045,-16.527278899999942],[13.135041237000053,-16.685068129999934],[13.341277122000065,-16.94446372999994],[13.463231001000054,-17.011323],[13.51453,-17.085753000999944],[13.509200001000067,-17.130796],[13.636445001000027,-17.208002],[13.696441,-17.247049000999937],[13.780864,-17.297755000999928],[13.862364,-17.34335300099997],[13.915216,-17.385843000999955],[13.929614001000061,-17.411084],[14.001268,-17.427296],[14.042314001000022,-17.419708],[14.102125001000047,-17.43873200099995],[14.155644,-17.422077000999934],[14.218941001000076,-17.398198],[16.894444001000068,-17.38986100099993],[17.282922745000064,-16.66503524799998],[17.39670181300005,-16.45282173199996],[17.387289047000024,-16.10117149399997],[17.366382599000076,-15.866175651999981],[17.094839097000033,-15.54175472299994],[17.00359726100004,-15.425370215999976],[16.923147203000042,-15.354543685999943],[16.85461998100004,-15.305932998999936],[16.779188156000032,-15.215935706999971],[16.748420716000055,-15.162325858999964]]]}},{"type":"Feature","properties":{"shapeName":"Huambo","shapeISO":"AO-HUA","shapeID":"26408823B12021631761277","shapeGroup":"AGO","shapeType":"ADM1"},"geometry":{"type":"Polygon","coordinates":[[[15.11654472500004,-13.403820037999935],[15.367588043000069,-13.463800429999935],[15.414305687000024,-13.64018535599996],[15.529059411000048,-13.767397880999965],[15.735912323000036,-13.635437964999937],[15.986401559000058,-13.390979766999976],[16.221178056000042,-13.343464850999965],[16.43204116900006,-13.359559058999935],[16.543403625000053,-13.209272384999963],[16.517990112000064,-13.024553298999933],[16.50590324500007,-12.810393332999979],[16.36782837000004,-12.658188819999964],[16.376512527000045,-12.492082595999932],[16.345554352000022,-12.298654555999974],[16.437681199000053,-12.192644118999965],[16.507333756000037,-12.123471259999974],[16.542594911000037,-12.022912978999955],[16.569543839000062,-11.892079352999929],[16.48524475200003,-11.797372817999928],[16.392353058000026,-11.709610938999958],[16.342170715000066,-11.635451316999934],[16.200479508000058,-11.491312980999965],[16.015233994000027,-11.465796470999976],[15.82305526700003,-11.478606223999975],[15.552409173000058,-11.501996039999938],[15.366047860000037,-11.58813476599994],[15.386217117000058,-11.724223136999967],[15.39891147700007,-11.830314635999969],[15.379174232000025,-11.909751891999974],[15.298426628000072,-11.98336887399995],[15.095653535000054,-12.062275886999942],[15.024669647000053,-12.358907699999975],[15.05749607100006,-12.543324470999949],[14.82465839400004,-12.661664008999935],[14.84719562500004,-12.854142188999958],[14.910909653000033,-13.188003539999954],[15.095460893000052,-13.397155761999954],[15.11654472500004,-13.403820037999935]]]}},{"type":"Feature","properties":{"shapeName":"Huíla","shapeISO":"AO-HUI","shapeID":"26408823B98547910937265","shapeGroup":"AGO","shapeType":"ADM1"},"geometry":{"type":"Polygon","coordinates":[[[13.57056903800003,-13.847884177999958],[13.579664230000049,-14.079195975999937],[13.65687465800005,-14.252535819999935],[13.653703690000043,-14.486078261999978],[13.574704171000064,-14.721779822999963],[13.300123216000031,-14.881261825999957],[13.256408692000036,-15.118185996999955],[13.237264634000041,-15.27069282499997],[13.38037681700007,-15.32878398899993],[13.483661652000023,-15.467151641999976],[13.558322906000058,-15.756056785999931],[13.49075603500006,-16.05440711999995],[13.482516289000046,-16.248334884999963],[13.695306779000077,-16.347234725999954],[13.896611214000075,-16.141965865999964],[14.105857849000074,-16.113132476999965],[14.351360321000072,-16.023487090999936],[14.78532505000004,-15.878278731999956],[14.977456093000058,-15.931889533999936],[15.172550201000035,-16.04049491899997],[15.326586723000048,-15.769387244999962],[15.471634865000055,-15.542436599999974],[15.696763992000058,-15.401028632999953],[15.967761041000074,-15.406005858999947],[16.21598434400005,-15.403206824999927],[16.489690781000036,-15.165397643999938],[16.699342729000023,-15.099827765999976],[16.67417335600004,-14.995660781999959],[16.662616730000025,-14.877884864999942],[16.622753144000058,-14.750107764999939],[16.586990356000058,-14.699831008999979],[16.507137300000068,-14.600668906999942],[16.502304078000066,-14.406218528999943],[16.469646454000042,-14.290946959999928],[16.49972343500002,-14.160943030999931],[16.49093055700007,-14.050110816999961],[16.487728120000043,-13.879830359999971],[16.49365615800002,-13.743165015999978],[16.53373336800007,-13.572881698999936],[16.43204116900006,-13.359559058999935],[16.221178056000042,-13.343464850999965],[15.986401559000058,-13.390979766999976],[15.735912323000036,-13.635437964999937],[15.529059411000048,-13.767397880999965],[15.414305687000024,-13.64018535599996],[15.367588043000069,-13.463800429999935],[15.11654472500004,-13.403820037999935],[14.941055299000027,-13.513273238999943],[14.680293084000027,-13.661073684999963],[14.48517513400003,-13.65915012399995],[14.220517160000043,-13.86976814299993],[13.976991653000027,-13.825106620999975],[13.711448670000038,-13.803486823999947],[13.57056903800003,-13.847884177999958]]]}},{"type":"Feature","properties":{"shapeName":"Cuando Cubango","shapeISO":"AO-CCU","shapeID":"26408823B90515543724533","shapeGroup":"AGO","shapeType":"ADM1"},"geometry":{"type":"Polygon","coordinates":[[[16.478195190000065,-14.011496543999954],[16.491430283000057,-14.120388030999948],[16.46634674200004,-14.25594425199995],[16.482627869000055,-14.371500968999953],[16.51111412100005,-14.489554404999978],[16.560354233000055,-14.688445090999949],[16.63248825100004,-14.728437423999935],[16.631589890000043,-14.805938720999961],[16.65504837000003,-14.960108756999944],[16.715198517000033,-15.064273833999948],[16.785051346000046,-15.178157805999945],[16.849386215000038,-15.258436202999974],[16.884029388000044,-15.325654029999953],[16.942552567000064,-15.387875556999973],[17.039657593000072,-15.461202620999927],[17.247112274000074,-15.718131064999966],[17.39017486700004,-15.968115806999947],[17.42018127500006,-16.276994704999936],[17.317750932000024,-16.544485091999945],[17.221330644000034,-16.878627776999963],[18.434764001000076,-17.406665],[18.478146,-17.473045],[18.520429,-17.514067000999944],[18.54636,-17.558313],[18.60462300100005,-17.593074],[18.628638,-17.638721000999965],[18.736753,-17.71805600099998],[18.784035001000063,-17.757629],[18.861267001000044,-17.802903],[18.924716,-17.81949],[19.006900001000076,-17.828413000999944],[19.122431001000052,-17.817181000999938],[19.197527001000026,-17.817340000999934],[19.258682,-17.823046],[19.322368,-17.833226],[19.328162,-17.854578],[19.401896,-17.864609000999963],[19.48000900100004,-17.865277],[19.510331,-17.860184000999936],[19.584526,-17.858222],[19.622745001000055,-17.863642],[19.712732,-17.882751],[19.73668900100006,-17.89721500099995],[19.784731,-17.881256],[19.880978,-17.880322],[19.956026001000055,-17.878157],[20.058343,-17.884867],[20.114736,-17.910042],[20.195448001000045,-17.882012],[20.245987,-17.892672000999937],[20.288342,-17.87506400099994],[20.378238001000057,-17.894385],[20.463042,-17.931076],[20.501541,-17.951968],[20.56297900100003,-17.984567],[20.588487001000033,-17.975144000999933],[20.617611,-17.975715],[20.714075001000026,-18.0076],[20.747435,-18.013215],[20.79459600100006,-18.030157000999964],[20.869168001000048,-18.026112],[20.868264,-18.004697],[20.913569,-17.989849000999982],[20.990378,-17.963056000999927],[21.054163001000063,-17.952491],[21.119979001000047,-17.93450200099994],[21.21739400100006,-17.930315],[21.275881,-17.965721],[21.371583,-18.00464900099996],[21.86410100100005,-17.943246],[23.425270528000055,-17.62822837899995],[23.40970229800007,-17.592455532999963],[23.395006884000054,-17.588253764999934],[23.357218731000046,-17.569962931999953],[23.221586324000043,-17.532706350999945],[23.136133078000057,-17.46656738599995],[23.04398894900004,-17.34669557199993],[23.008830549000038,-17.284124233999933],[22.853584583000043,-17.19082632599998],[22.739466366000045,-17.064332425999964],[22.644853905000048,-16.97348839299997],[22.620221810000032,-16.955000618999975],[22.42024534600006,-16.745495863999963],[22.32190318000005,-16.641711416999954],[22.218564422000043,-16.562445371999956],[22.147220008000033,-16.494239162999975],[22.125382254000044,-16.445372365999958],[22.11785752000003,-16.38410234899993],[22.098422264000078,-16.33094420499998],[22.085210397000026,-16.30456193599997],[22.076467793000063,-16.25756559399997],[22.049612538000076,-16.23992623299995],[22.025369916000045,-16.215661718999968],[22.002230260000033,-16.197548151999968],[21.94408035300006,-16.134323119999976],[21.85517883400007,-16.07712554899996],[21.81267738400004,-15.996011733999978],[21.761844635000045,-15.912957190999975],[21.706272125000055,-15.851028441999972],[21.634029389000034,-15.799941062999949],[21.547616960000028,-15.677742003999981],[21.51038360700005,-15.580806731999928],[21.452308655000024,-15.531106948999934],[21.40089798100007,-15.401955604999955],[21.267000198000062,-15.312271117999956],[21.226451874000077,-15.229503631999933],[21.156202317000066,-15.182567595999956],[21.076250077000054,-15.121744155999977],[21.022678375000055,-15.063696860999926],[20.935796739000068,-15.016482352999958],[20.835874557000068,-14.982321738999929],[20.695423126000037,-14.973717689999944],[20.598276138000074,-14.968167304999952],[20.43534088100006,-15.00123214699994],[20.256599427000026,-14.98402404799998],[20.102571488000024,-14.912375449999956],[19.98408889800004,-14.788499831999957],[19.908048630000053,-14.747393607999982],[19.81647872900004,-14.671566962999975],[19.74239730900007,-14.581568717999971],[19.675252914000055,-14.497125625999956],[19.58980560300006,-14.360182761999965],[19.437726974000043,-14.296025275999966],[19.24707031300005,-14.242142676999947],[19.18179321300005,-14.425491332999968],[18.930618286000026,-14.399673461999953],[18.872076035000077,-14.333008765999978],[18.81742858900003,-14.239395141999978],[18.800531387000035,-14.136060714999928],[18.77669334500007,-14.035502433999966],[18.70401382400007,-13.919113158999949],[18.613836288000073,-13.847173690999966],[18.36770820600003,-13.73163223299997],[18.108806610000045,-13.65248584699998],[17.858194351000066,-13.685562133999952],[17.798721314000034,-13.876955985999928],[17.725421907000054,-13.948632239999938],[17.56941986100003,-14.007255553999926],[17.41894340500005,-14.101432799999941],[17.345600129000047,-14.231163024999944],[17.263401031000058,-14.305892943999936],[17.03812599200006,-14.168409347999955],[16.906976701000076,-13.983693122999966],[16.643323898000062,-14.00176715899994],[16.478195190000065,-14.011496543999954]]]}},{"type":"Feature","properties":{"shapeName":"Cuanza Norte","shapeISO":"AO-CNO","shapeID":"26408823B10526282327152","shapeGroup":"AGO","shapeType":"ADM1"},"geometry":{"type":"Polygon","coordinates":[[[14.090644836000024,-8.922418593999964],[14.140703201000065,-9.067302703999928],[14.182644844000038,-9.156540870999947],[14.151661873000023,-9.354537963999974],[14.120747566000034,-9.534949302999962],[14.195855141000038,-9.638799666999944],[14.288059236000038,-9.678453444999946],[14.429073334000066,-9.698924064999972],[14.530183793000049,-9.778852462999964],[14.631171228000028,-9.779332160999957],[14.777566910000075,-9.732294082999942],[14.906805993000035,-9.714447020999955],[14.955300332000036,-9.677205085999958],[15.104586601000051,-9.722394942999927],[15.14209461200005,-9.564349173999972],[15.15380477900004,-9.399630546999958],[15.230031014000076,-9.362380027999961],[15.313339233000022,-9.226237296999955],[15.433105470000044,-9.19147586799994],[15.559546471000033,-9.171715735999953],[15.651790620000043,-9.09142017399995],[15.705147744000044,-8.76752090499997],[15.620676994000064,-8.620524405999959],[15.780996323000068,-8.43183040599996],[15.811112405000074,-8.332608222999966],[15.806259156000067,-8.186125754999978],[15.776240350000023,-8.101622580999958],[15.75596523400003,-8.056311606999941],[15.672760964000076,-8.004883765999978],[15.553258896000045,-8.048238753999954],[15.454318048000061,-8.007649421999929],[15.246916772000077,-7.944549083999959],[15.185435295000048,-8.044882773999973],[15.207400323000059,-8.136045455999977],[15.165066719000038,-8.243047713999943],[15.094680787000073,-8.291399955999964],[14.984897615000023,-8.291959762999966],[14.89535522600005,-8.29973602299998],[14.906600953000066,-8.369462966999947],[14.989390374000038,-8.49481773399998],[14.96770858800005,-8.657963752999933],[14.821467400000074,-8.827712058999964],[14.581445694000024,-8.847786902999928],[14.402836801000035,-8.927004813999929],[14.283503533000044,-8.850145339999926],[14.090644836000024,-8.922418593999964]]]}},{"type":"Feature","properties":{"shapeName":"Cuanza Sul","shapeISO":"AO-CUS","shapeID":"26408823B29177594449133","shapeGroup":"AGO","shapeType":"ADM1"},"geometry":{"type":"Polygon","coordinates":[[[15.028139115000045,-12.20698165899995],[15.180529594000063,-12.03754424999994],[15.389395714000045,-11.966968535999968],[15.392786026000067,-11.870865821999928],[15.41003227300007,-11.776431083999967],[15.37514591200005,-11.684506415999977],[15.43288803200005,-11.546460151999952],[15.672204019000048,-11.482806205999964],[15.792036057000075,-11.277793883999948],[15.922922134000032,-11.086097716999973],[16.07431411700003,-10.986337661999926],[16.301128387000063,-10.857666968999979],[16.506025314000055,-10.698981284999945],[16.591144562000068,-10.632003783999949],[16.58222770800006,-10.530040740999937],[16.492321014000026,-10.425042151999946],[16.432920457000023,-10.332813262999935],[16.35301780700007,-10.275320052999973],[16.38759040900004,-10.133625983999934],[16.345886230000076,-9.993070601999932],[16.320846558000028,-9.895573615999979],[16.164844514000038,-9.739500045999932],[15.911909104000074,-9.732348441999932],[15.652384759000029,-9.775758742999926],[15.446627618000036,-9.78167629199993],[15.234499931000073,-9.798426627999959],[15.124311447000025,-9.744324683999935],[15.040476800000022,-9.695213317999958],[14.94869613700007,-9.714980124999954],[14.848575593000078,-9.726700782999956],[14.739613533000067,-9.76453876499994],[14.574815750000027,-9.768399238999962],[14.566381455000055,-10.169734000999938],[14.616355896000073,-10.367074965999961],[14.447213174000069,-10.37050056499993],[14.224387169000067,-10.273784636999949],[14.053830148000031,-10.382961272999978],[13.972853662000034,-10.37436675999993],[13.812900543000069,-10.360494613999947],[13.730621338000049,-10.354660033999949],[13.653974534000042,-10.27949237799993],[13.536129951000078,-10.211471557999971],[13.522360803000026,-10.26736068699995],[13.54319381700003,-10.331527709999932],[13.531249046000028,-10.382639884999946],[13.62152767200007,-10.480694770999946],[13.664583206000032,-10.534860610999942],[13.707637787000067,-10.587638854999966],[13.741526604000057,-10.626806258999977],[13.780139924000025,-10.682638167999926],[13.75708198500007,-10.719861030999937],[13.726805687000024,-10.751805304999948],[13.762359619000051,-10.809862136999982],[13.802914620000024,-10.87041568799998],[13.86236000100007,-11.00152778599994],[13.85541534400005,-11.042917251999938],[13.836250305000021,-11.186248778999982],[13.824583055000062,-11.246806144999937],[13.809583664000058,-11.318470954999952],[13.797638893000055,-11.340970992999928],[13.804306031000067,-11.398195266999949],[13.796251298000072,-11.450972556999943],[13.787628175000066,-11.49236011499994],[13.77930641200004,-11.528195380999932],[13.77208328200004,-11.587082862999978],[13.781528473000037,-11.638193129999934],[13.794027328000027,-11.726805686999967],[13.973207474000048,-11.793853759999934],[14.14826488600005,-11.907027244999938],[14.33754158000005,-11.911093711999968],[14.539935112000023,-11.877429961999951],[14.791154861000052,-12.09675311999996],[15.028139115000045,-12.20698165899995]]]}},{"type":"Feature","properties":{"shapeName":"Luanda","shapeISO":"AO-LUA","shapeID":"26408823B17220104796328","shapeGroup":"AGO","shapeType":"ADM1"},"geometry":{"type":"MultiPolygon","coordinates":[[[[13.068751335000059,-9.018471717999944],[13.068751335000059,-9.018471717999944]]],[[[13.02402782400003,-9.007362365999938],[13.02402782400003,-9.007362365999938]]],[[[13.057638169000029,-8.98347186999996],[13.057638169000029,-8.98347186999996]]],[[[13.09458255900006,-8.97458267199994],[13.09458255900006,-8.97458267199994]]],[[[13.131806374000064,-8.931805610999959],[13.13263988600005,-8.933750152999949],[13.131806374000064,-8.931805610999959]]],[[[13.126249314000063,-8.905415534999975],[13.100138665000031,-8.940694808999979],[13.115415573000064,-8.94041728999997],[13.127638818000037,-8.917638778999958],[13.126249314000063,-8.905415534999975]]],[[[13.149026871000046,-8.902084350999928],[13.149026871000046,-8.902084350999928]]],[[[13.165971756000033,-8.867082595999932],[13.165971756000033,-8.867082595999932]]],[[[13.152916909000055,-8.862916945999928],[13.094026566000025,-8.919860839999956],[13.03013801700007,-8.994860648999975],[13.047638893000055,-8.977083205999975],[13.091528894000021,-8.93208408399994],[13.120139122000069,-8.89958381699995],[13.147916794000025,-8.87486171699993],[13.155418396000073,-8.86541652699998],[13.152916909000055,-8.862916945999928]]],[[[13.207915306000075,-8.826250075999951],[13.207915306000075,-8.826250075999951]]],[[[13.21319580200003,-8.81764030499994],[13.21319580200003,-8.81764030499994]]],[[[13.262918472000024,-8.760139464999952],[13.245971681000071,-8.779582976999961],[13.262918472000024,-8.760139464999952]]],[[[13.394026756000073,-8.750798224999926],[13.34319305400004,-8.772084235999955],[13.301250458000027,-8.755972861999965],[13.27708244400003,-8.790417670999943],[13.247360230000027,-8.79597186999996],[13.218194009000058,-8.807360648999975],[13.218471528000066,-8.814305304999948],[13.201251031000027,-8.86236095399994],[13.158193588000074,-8.908749579999949],[13.132362366000052,-8.960694312999976],[13.101527214000043,-8.964305877999948],[13.070417405000057,-9.015693664999958],[13.046251298000072,-9.057360648999975],[13.019861222000031,-9.09375],[13.010416985000063,-9.087639808999938],[13.00625038100003,-9.071249961999968],[13.008193971000026,-9.040971755999976],[13.017916680000042,-9.035140037999952],[12.99652767300006,-9.032082557999956],[13.029862404000028,-9.139305114999956],[13.082637788000056,-9.231249808999962],[13.13263988600005,-9.310137748999978],[13.162637711000059,-9.32291698499995],[13.170416833000047,-9.310416221999958],[13.189862252000069,-9.315973281999959],[13.196529388000044,-9.290139197999963],[13.217915535000031,-9.255971908999982],[13.196806908000042,-9.290972709999949],[13.187084198000036,-9.327082633999964],[13.155970574000037,-9.34791660299993],[13.177916527000036,-9.412639617999957],[13.205139160000044,-9.53180694599996],[13.201251031000027,-9.569305419999978],[13.229305268000076,-9.65819358799996],[13.194863320000024,-9.675695418999965],[13.23069477100006,-9.73708438899996],[13.31402683300007,-9.86958408399994],[13.340695382000035,-9.960694312999976],[13.31319522900003,-9.98347186999996],[13.405415535000031,-10.086527823999972],[13.457083703000023,-10.167611121999926],[13.467361450000055,-10.20819473299997],[13.49347305300006,-10.236804961999951],[13.515169145000073,-10.217053412999974],[13.598524095000073,-10.250421523999933],[13.728169442000024,-10.36964130399997],[13.775788307000028,-10.364377021999928],[13.924322128000028,-10.367429732999938],[14.03279972100006,-10.40350437199993],[14.177017212000067,-10.294351577999976],[14.40941715300005,-10.321395873999961],[14.584821702000056,-10.418444632999979],[14.55758380900005,-10.212767600999939],[14.588749886000073,-9.963179587999946],[14.519336700000053,-9.761362075999955],[14.389912605000063,-9.682002067999974],[14.277743340000029,-9.646516799999972],[14.163365364000072,-9.62965393099995],[14.09297943100006,-9.527194976999965],[14.207694054000058,-9.293045997999968],[14.132959367000069,-9.13850307499996],[14.157895089000021,-9.023078917999953],[14.060194969000065,-8.91828632399995],[13.850324631000035,-8.936264037999933],[13.631413460000033,-8.84075164799998],[13.542185734000043,-8.82218637699998],[13.496047839000028,-8.773902531999966],[13.422830389000069,-8.747277495999981],[13.397639275000074,-8.748240470999974],[13.394026756000073,-8.750798224999926]]]]}},{"type":"Feature","properties":{"shapeName":"Lunda Norte","shapeISO":"AO-LNO","shapeID":"26408823B5362531623165","shapeGroup":"AGO","shapeType":"ADM1"},"geometry":{"type":"Polygon","coordinates":[[[21.928678390000073,-8.314855104999936],[21.89312600100004,-8.294171],[21.871723,-8.193867],[21.876581,-8.171835000999977],[21.83539500100005,-8.102149],[21.802931001000047,-8.045589],[21.762926,-7.999248],[21.755106,-7.92640400099998],[21.776653,-7.88841],[21.774258001000078,-7.826689],[21.774566,-7.793849],[21.801476,-7.731199],[21.812575,-7.664848000999939],[21.8319,-7.629897],[21.85033700100007,-7.594535],[21.842587,-7.532679],[21.852967001000025,-7.46883700099994],[21.853414001000033,-7.437447],[21.833159,-7.398504],[21.834327001000077,-7.351203000999931],[21.806534601000067,-7.319889305999936],[21.78679373400007,-7.284702606999929],[20.557952,-7.263281],[20.55384,-7.223097000999928],[20.556498001000023,-7.189726],[20.545558001000074,-7.151872],[20.559367001000055,-7.133765],[20.574877,-7.102134],[20.58924,-7.072413],[20.603629,-7.022073],[20.611315,-6.991379000999927],[20.624979,-6.947256],[20.627033,-6.919986000999927],[20.314938,-6.93015],[20.309041001000026,-6.95284],[20.303512,-6.986719000999926],[19.54961600100006,-7.008689],[19.555660001000035,-7.034347],[19.547862,-7.070787],[19.531394,-7.097337],[19.513071,-7.143554000999927],[19.49953400100003,-7.16503],[19.507092,-7.211229],[19.503858001000026,-7.22871700099995],[19.501343001000066,-7.250147000999959],[19.493492,-7.266564],[19.497876001000066,-7.279041],[19.49011500100005,-7.293304000999967],[19.495608,-7.305482],[19.490317,-7.317724],[19.496698,-7.331246],[19.502622,-7.344787000999929],[19.494491,-7.363655],[19.501531,-7.375187],[19.51715,-7.393455],[19.518829,-7.402288],[19.517441,-7.415012],[19.523464001000036,-7.425257],[19.534624,-7.437373],[19.533999,-7.444445000999963],[19.543409001000043,-7.452179],[19.530109001000028,-7.462726],[19.518051,-7.484813000999964],[19.501372,-7.492643],[19.490894001000072,-7.516706],[19.487516001000074,-7.561043000999973],[19.370564,-7.590105],[19.374785,-7.609188],[19.385903,-7.635812000999977],[19.392351001000065,-7.649029],[19.402017,-7.664824],[19.406487001000073,-7.68675000099995],[19.410594,-7.702877000999933],[19.402772,-7.71702],[19.394821,-7.743419],[19.390802,-7.766066000999956],[19.384467,-7.77627],[19.375150001000065,-7.792488000999981],[19.362837,-7.821634],[19.365421001000072,-7.84909],[19.36308100100007,-7.86238100099996],[19.3507,-7.884989],[19.34524,-7.898483],[19.355123001000038,-7.905719],[19.356243,-7.932619],[19.36783900100005,-7.970863],[19.38133300100003,-8.0],[18.78719600100004,-7.9784],[18.780571,-7.963038],[18.774409,-7.953734],[18.775238,-7.939838],[18.774657001000037,-7.924752],[18.532908,-7.922927],[18.532548,-7.934414],[18.529545,-7.972291000999974],[18.528464,-7.998580000999937],[18.395051,-8.013606],[18.369964,-8.023162],[18.349460001000068,-8.022797],[18.33251800100004,-8.016640000999928],[18.30969900100007,-8.015965],[18.301667001000055,-8.000612000999979],[18.272853,-7.985454],[18.250427,-7.989996],[18.216399,-7.979517],[18.195719,-7.985001],[18.172581001000026,-8.00794100099995],[18.134881,-8.036877],[18.123876,-8.04064600099997],[18.11145,-8.031962],[18.100122,-8.039443],[18.101388,-8.04746],[18.093081,-8.055268],[18.098433,-8.071555000999979],[18.103312001000063,-8.086906000999932],[17.957597001000067,-8.093985000999965],[17.915067001000068,-8.08304100099997],[17.870054001000028,-8.080891],[17.839604,-8.089842],[17.814941001000022,-8.099755000999949],[17.795943,-8.112859000999947],[17.782158001000028,-8.111042],[17.758868,-8.100171],[17.737276,-8.099846],[17.720541,-8.09871],[17.699645,-8.101091],[17.681179001000032,-8.102701000999957],[17.673733001000073,-8.105572],[17.65214300100007,-8.11457700099993],[17.641923001000066,-8.117511],[17.631027,-8.123264],[17.61639400100006,-8.12775],[17.601685,-8.130038],[17.586878,-8.126541],[17.571433,-8.126721],[17.562525,-8.120919],[17.546934001000068,-8.118729000999963],[17.538174001000073,-8.110998],[17.557146072000023,-8.185637473999975],[17.551244736000058,-8.262948989999927],[17.563108444000022,-8.372284888999957],[17.59585762000006,-8.574199676999967],[17.597774506000064,-8.753094672999964],[17.56700515700004,-8.97448921199998],[17.560863496000024,-9.163652419999949],[17.353227615000037,-9.303413390999935],[17.40002632200003,-9.488120078999941],[17.481721879000077,-9.633936881999944],[17.625509263000026,-9.741687774999946],[17.837471008000023,-9.815897941999935],[17.949989320000043,-9.79993438699995],[18.05991935800006,-9.873757361999935],[18.17882919300007,-9.904655456999933],[18.36708831900006,-9.718838691999963],[18.480236054000045,-9.66678619399994],[18.567108155000028,-9.693435668999939],[18.627641678000032,-9.754818915999977],[18.65654945500006,-9.830099105999977],[18.86364549600006,-10.21276054499998],[19.170944215000077,-10.18226814299993],[19.39613723800005,-9.900251388999948],[19.36998176700007,-9.607948302999944],[19.564760208000052,-9.584269523999978],[19.73389816300005,-9.899360656999932],[19.965797424000073,-9.648474692999969],[20.238174439000034,-9.261759757999926],[20.436908722000055,-9.091789245999962],[20.663530351000077,-9.013230323999949],[20.802389145000063,-8.78139972699995],[21.04857635600007,-8.605630874999974],[21.324710846000073,-8.57095813799998],[21.63311767700003,-8.46061515799994],[21.832458496000072,-8.38717937499996],[21.928678390000073,-8.314855104999936]]]}},{"type":"Feature","properties":{"shapeName":"Lunda Sul","shapeISO":"AO-LSU","shapeID":"26408823B58820355179323","shapeGroup":"AGO","shapeType":"ADM1"},"geometry":{"type":"Polygon","coordinates":[[[19.189689636000026,-11.455695151999976],[19.281465530000048,-11.403528213999948],[19.386636734000035,-11.416570662999959],[19.47543144200006,-11.366546630999949],[19.560056686000053,-11.270405768999979],[19.696317673000067,-11.296221732999982],[19.843395233000024,-11.251466750999953],[19.921939851000047,-11.303130149999959],[19.984102250000035,-11.266728400999966],[20.065141678000032,-11.283941268999968],[20.15560722500004,-11.216695785999946],[20.227493286000026,-11.230575561999956],[20.31742286700006,-11.280853270999955],[20.408729553000057,-11.27528381299993],[20.496995927000057,-11.338616370999944],[20.596916200000067,-11.378611564999972],[20.719593048000036,-11.411383628999943],[20.782321930000023,-11.43999290499994],[20.90056038000006,-11.467486381999947],[21.023244858000055,-11.474698066999963],[21.03795623800005,-11.40940380099994],[21.150371552000024,-11.37494277999997],[21.216714860000025,-11.305750846999956],[21.33246421800004,-11.24099636099993],[21.427396775000034,-11.204301833999978],[21.49429702900005,-11.167613028999938],[21.572023393000052,-11.180931090999934],[21.65197944600004,-11.148400306999974],[21.695018768000068,-11.091425895999976],[21.64977073800003,-11.003912925999941],[21.724208832000045,-10.834124564999968],[21.752567292000037,-10.705748557999925],[21.85398674000004,-10.616519927999946],[21.974838257000044,-10.623128890999965],[22.084882736000054,-10.58611965199998],[22.229314805000058,-10.625056266999934],[22.310719,-10.598369],[22.308772,-10.553742000999932],[22.274319001000038,-10.512644],[22.289685001000066,-10.46296],[22.308086,-10.421653],[22.323903,-10.397493],[22.323231001000067,-10.377339],[22.304120001000058,-10.35169],[22.300958001000026,-10.324989000999949],[22.28205,-10.305779000999962],[22.269847,-10.257084000999953],[22.255274,-10.22649],[22.232831,-10.184724],[22.215696001000026,-10.129773],[22.22145000100005,-10.109573000999944],[22.221277001000033,-10.070724000999974],[22.209413,-10.01182],[22.197068,-9.969971],[22.178157001000045,-9.909558],[22.128813,-9.890882000999966],[22.071785,-9.875917],[22.031417,-9.8265],[22.008754,-9.805087],[21.994134,-9.748227000999975],[21.949092001000054,-9.710373000999937],[21.916649,-9.679619000999935],[21.894121,-9.652462],[21.864193,-9.623748000999967],[21.842549,-9.529365],[21.830499,-9.456772],[21.80347400100004,-9.426442],[21.809326001000045,-9.37443800099993],[21.809938,-9.340775],[21.834038,-9.277241],[21.858909,-9.2267],[21.85423600100006,-9.174804000999927],[21.841221,-9.143793000999949],[21.837190001000067,-9.099455],[21.839323,-9.059603],[21.84647,-9.019396000999961],[21.853444,-8.94631900099995],[21.859516,-8.888374],[21.860963001000073,-8.851421],[21.884183,-8.816459000999942],[21.896778,-8.760104],[21.892305001000068,-8.698244],[21.906034001000023,-8.673104000999956],[21.9107,-8.629557000999966],[21.934559,-8.59958200099993],[21.930794,-8.566014],[21.937991,-8.532737],[21.94832,-8.492729],[21.934493,-8.411508000999959],[21.916011,-8.342738],[21.849920274000056,-8.35907745399993],[21.66399192800003,-8.447031974999959],[21.34832000800003,-8.574570655999935],[21.069969177000075,-8.607853888999955],[20.81655883800005,-8.755857467999931],[20.71130561900003,-8.986019134999935],[20.48689651600006,-9.08874130199996],[20.287036897000064,-9.257311820999973],[19.969650269000056,-9.600415229999953],[19.81549072300004,-9.887681960999942],[19.572935104000067,-9.573039054999981],[19.38987922800004,-9.597193717999971],[19.36943817200006,-9.80441379499996],[19.189523697000027,-10.156427382999937],[18.85703277700003,-10.282722472999978],[18.685186387000044,-9.915937423999935],[18.674978257000078,-10.010670661999939],[18.643941880000057,-10.083180427999935],[18.59152984700006,-10.135418891999961],[18.556030273000033,-10.167099952999934],[18.521369934000063,-10.209328650999964],[18.48394775400004,-10.27490329699998],[18.507268906000036,-10.306847571999981],[18.47815132200003,-10.33657455399998],[18.45292854300004,-10.394924163999974],[18.484859467000035,-10.450201034999964],[18.552579881000042,-10.500199317999943],[18.60698509300005,-10.55880641899995],[18.654449464000038,-10.604083060999926],[18.641424180000058,-10.647977828999956],[18.60925102300007,-10.681324958999937],[18.631481172000065,-10.790225028999942],[18.68838691700006,-10.870780944999979],[18.763605119000033,-10.962168693999956],[19.089969635000045,-11.203812598999946],[19.22512245200005,-11.316859244999932],[19.189689636000026,-11.455695151999976]]]}},{"type":"Feature","properties":{"shapeName":"Malanje","shapeISO":"AO-MAL","shapeID":"26408823B46264466320795","shapeGroup":"AGO","shapeType":"ADM1"},"geometry":{"type":"Polygon","coordinates":[[[18.767398834000062,-10.971386908999932],[18.697542191000025,-10.875782012999935],[18.643972397000027,-10.805500983999934],[18.611473084000068,-10.690768241999933],[18.645311356000036,-10.657703399999946],[18.66582679800007,-10.607136725999965],[18.618085862000044,-10.561026572999936],[18.557859422000035,-10.522975921999944],[18.497343064000063,-10.449087142999929],[18.459867478000035,-10.400479316999963],[18.472604752000052,-10.34491062199993],[18.503665924000074,-10.315734862999932],[18.49365615800002,-10.27490234399994],[18.518323898000062,-10.220441817999927],[18.54853630100007,-10.160988807999956],[18.58320617800007,-10.132641791999959],[18.632011415000022,-10.085686683999938],[18.68468856900006,-10.014834403999942],[18.69074058500007,-9.924267768999925],[18.65654945500006,-9.830099105999977],[18.627641678000032,-9.754818915999977],[18.567108155000028,-9.693435668999939],[18.480236054000045,-9.66678619399994],[18.36708831900006,-9.718838691999963],[18.17882919300007,-9.904655456999933],[18.05991935800006,-9.873757361999935],[17.949989320000043,-9.79993438699995],[17.837471008000023,-9.815897941999935],[17.625509263000026,-9.741687774999946],[17.481721879000077,-9.633936881999944],[17.40002632200003,-9.488120078999941],[17.353227615000037,-9.303413390999935],[17.560863496000024,-9.163652419999949],[17.56700515700004,-8.97448921199998],[17.597774506000064,-8.753094672999964],[17.59585762000006,-8.574199676999967],[17.563108444000022,-8.372284888999957],[17.551244736000058,-8.262948989999927],[17.557146072000023,-8.185637473999975],[17.534856,-8.103137],[17.515255,-8.055247],[17.530421,-8.042056],[17.480911,-8.001931],[17.464059,-7.950271],[17.438907,-7.916503],[17.444175001000076,-7.865521000999934],[17.410433,-7.831391],[17.398191001000043,-7.816825000999927],[17.38327600100007,-7.78037],[17.329581,-7.778665],[17.320365001000027,-7.749209],[17.316834001000075,-7.71623600099997],[17.300056,-7.695131],[17.297845,-7.671483000999956],[17.294839,-7.626371000999939],[17.251303,-7.602518],[17.218369001000042,-7.580198],[17.192542,-7.529233],[17.15204600100003,-7.475444],[17.183574,-7.43945200099995],[17.133933,-7.419382000999974],[17.110382,-7.394174],[16.97617530800005,-7.453123092999931],[16.845693588000074,-7.599260806999951],[16.664358140000047,-7.367942809999931],[16.377204895000034,-7.40919017799996],[16.191642761000026,-7.584620952999956],[16.102800370000068,-7.781983851999939],[16.102788926000073,-8.095549582999979],[15.915520669000045,-8.226443290999953],[15.816070558000035,-8.299250602999962],[15.830588341000066,-8.395706176999965],[15.630601884000043,-8.57383346599994],[15.734754562000035,-8.72223091099994],[15.641736984000033,-9.044477462999964],[15.583124161000057,-9.17448711399993],[15.453614236000021,-9.184251784999958],[15.362153053000043,-9.226778029999934],[15.244923593000067,-9.295986175999928],[15.116333961000066,-9.374645232999967],[15.116531373000043,-9.52602481799994],[15.113735200000065,-9.719894408999949],[15.184266090000051,-9.774016379999978],[15.298300744000073,-9.809232711999925],[15.535923958000069,-9.783306121999942],[15.805425644000024,-9.735998153999958],[16.032817841000053,-9.722871779999934],[16.227865219000023,-9.811706542999957],[16.311454774000026,-9.944188117999943],[16.35674667400002,-10.05057239499996],[16.334108353000033,-10.19169902799996],[16.411270143000024,-10.299480437999932],[16.44738006700004,-10.404767989999925],[16.528951646000053,-10.472539901999937],[16.636333466000053,-10.586985587999948],[16.657716752000056,-10.66644477799997],[16.758146287000045,-10.746995925999954],[16.85633468700007,-10.766976356999976],[17.036075593000078,-10.798054694999962],[17.116794587000072,-10.813876151999978],[17.189474106000034,-10.850253104999979],[17.299043655000048,-10.868288039999982],[17.38506317100007,-10.986066817999927],[17.442777635000027,-11.079401015999963],[17.414779663000047,-11.185532569999964],[17.45167923100007,-11.233586310999954],[17.47749138000006,-11.324976920999973],[17.517719270000043,-11.41108703599997],[17.51161956800007,-11.479706763999957],[17.48526763900003,-11.534436225999968],[17.518556595000064,-11.630549430999963],[17.552400589000058,-11.70415782899994],[17.652271271000075,-11.71802902199994],[17.851737976000038,-11.50770664199996],[17.896675110000047,-11.437414168999965],[17.923038484000074,-11.526581763999957],[18.01431274500004,-11.523233413999947],[18.097543717000065,-11.541833877999977],[18.208244324000077,-11.54431438399996],[18.453227998000045,-11.522597312999949],[18.695981980000056,-11.373362540999949],[18.83415412900007,-11.316102981999961],[18.77004241900005,-11.230545997999968],[18.75891685600004,-11.08858108499993],[18.767398834000062,-10.971386908999932]]]}},{"type":"Feature","properties":{"shapeName":"Moxico","shapeISO":"AO-MOX","shapeID":"26408823B70921043256570","shapeGroup":"AGO","shapeType":"ADM1"},"geometry":{"type":"Polygon","coordinates":[[[17.955053329000066,-13.566351890999954],[18.321922303000065,-13.708860396999967],[18.55584716900006,-13.799400329999969],[18.667663574000073,-13.898006438999971],[18.75366783100003,-14.002170562999936],[18.791099549000023,-14.11050414999994],[18.805780412000047,-14.210509299999956],[18.84904670700007,-14.311897277999947],[18.903978348000066,-14.383561133999933],[19.089664459000062,-14.372714995999956],[19.195161820000067,-14.266869544999963],[19.39304351800007,-14.292694091999977],[19.565383911000026,-14.343514441999957],[19.63557434100005,-14.452680587999964],[19.72991180400004,-14.567124366999963],[19.785680771000045,-14.634902],[19.891677856000058,-14.735448836999979],[19.95300674500004,-14.777111052999942],[20.066219330000024,-14.879324912999948],[20.210807801000044,-14.95819473299997],[20.368730545000062,-14.984291076999966],[20.550531387000035,-14.990388869999947],[20.680713655000034,-14.959275245999947],[20.815330505000077,-15.003430366999964],[20.909427643000072,-15.01786994899993],[20.99658393900006,-15.048418998999978],[21.058759689000055,-15.110634803999972],[21.14787483300006,-15.169510840999976],[21.197849274000077,-15.217837333999967],[21.265054703000033,-15.287549018999982],[21.353391647000024,-15.39419460299996],[21.458143235000023,-15.468877791999944],[21.494823457000052,-15.567758559999959],[21.55345344500006,-15.635237693999954],[21.612634659000037,-15.779394149999973],[21.71294975400008,-15.833239554999977],[21.747394562000068,-15.899908065999966],[21.787672044000033,-15.978240966999977],[21.83017540000003,-16.067964553999957],[21.926300050000066,-16.123773574999973],[22.00045390200006,-15.786673623999945],[22.40835376700005,-12.99938162199993],[24.053921763000062,-12.998051123999971],[24.04478775800004,-12.989302620999979],[24.035930046000033,-12.980708126999957],[24.02927803800003,-12.97258683299998],[24.028228329000058,-12.961378914999955],[24.026350386000047,-12.947779650999962],[24.021029853000073,-12.940494583999964],[24.008052607000025,-12.933888185999933],[23.995064281000055,-12.921683153999936],[23.982979698000065,-12.90074967399994],[23.975008149000075,-12.896798854999929],[23.957549399000072,-12.891493926999942],[23.948592993000034,-12.89383332999995],[23.932403031000035,-12.886222],[23.923419341000056,-12.865743390999967],[23.914151090000075,-12.85671786499995],[23.90834963700007,-12.85025475499998],[23.89620633800007,-12.829789035999966],[23.89653690800003,-12.799187328999949],[23.90152344300003,-12.776663329999963],[23.900741389000075,-12.76288019499998],[23.90783683500007,-12.747895780999954],[23.910813676000032,-12.734678728999938],[23.92100405800005,-12.71956939499995],[23.928487791000066,-12.710859040999935],[23.930777343000045,-12.695152127999961],[23.924391839000066,-12.672640461999947],[23.92898867300005,-12.655554141999971],[23.935289974000057,-12.646418061999952],[23.94339590100003,-12.633317796999961],[23.949570806000054,-12.615832950999959],[23.95548732000003,-12.598784345999945],[23.956891434000056,-12.582295078999948],[23.95147112500007,-12.56431381599998],[23.95607705200007,-12.531472336999968],[23.966312801000072,-12.517473521999932],[23.982958048000057,-12.510902655999928],[23.994372356000042,-12.489273650999962],[24.006640702000027,-12.469360821999942],[24.02117660700003,-12.452369034999947],[24.032216179000045,-12.44282190599995],[24.052764523000064,-12.43000785299995],[24.06935997100004,-12.397258910999938],[24.059815713000035,-12.341436256999941],[24.061583127000063,-12.272785660999944],[24.047229946000073,-12.244522635999942],[24.005339250000077,-12.214345649999927],[23.980391587000042,-12.136440205999975],[24.023031324000044,-11.829244617999962],[24.00827423000004,-11.789993556999946],[24.003891769000063,-11.769726290999927],[23.99630228500007,-11.751020875999927],[23.988498031000063,-11.709797151999965],[23.975198486000068,-11.68203202999996],[23.962474728000075,-11.660510097999975],[23.975938677000045,-11.65272029099998],[23.982185927000046,-11.629908066999974],[23.98834338200004,-11.614081079999949],[23.999896843000045,-11.594289145999937],[24.010544839000033,-11.574995573999956],[24.027268583000023,-11.541226715999926],[24.036856061000037,-11.519987028999935],[24.026636947000043,-11.49160163299996],[24.020128654000075,-11.473763001999941],[24.02443954000006,-11.457571538999957],[24.05345126800006,-11.42403121999996],[24.037491201000023,-11.168668181999976],[24.03328506300005,-11.135360653999953],[24.017266303000042,-11.129427907999968],[24.001011796000057,-11.117192174999957],[24.021791928000027,-11.098018455999977],[24.015109348000067,-11.06993502599994],[24.012188773000048,-11.055371236999974],[24.01051576100008,-11.015191723999976],[24.02191302500006,-10.978140373999963],[24.018016126000077,-10.942299071999969],[23.999872,-10.889962],[23.944858,-10.950773],[23.892133,-10.983779],[23.856967,-11.02928800099994],[23.759381,-10.98730300099993],[23.661832,-10.998941],[23.55894900100003,-10.963623],[23.42462800100003,-10.948995],[23.311828001000038,-11.01790000099993],[23.241879,-11.070331],[23.137440001000073,-11.090637],[23.040761,-11.090637],[22.906682001000036,-11.086697],[22.799697001000027,-11.09288],[22.69477400100004,-11.093728],[22.627552001000026,-11.046752],[22.540571,-11.038145000999975],[22.494363,-11.096819],[22.438281,-11.177013000999978],[22.266254,-11.264876],[22.26037,-11.200980000999948],[22.258197,-11.157876],[22.238176,-11.128272],[22.218385,-11.116042],[22.212465001000055,-11.085742],[22.212563001000035,-11.053926],[22.218389001000048,-11.027604],[22.208303,-10.99962],[22.204368001000034,-10.98105],[22.204170001000023,-10.963258000999929],[22.204086,-10.94221],[22.199689001000024,-10.929806],[22.18849700100003,-10.911833000999934],[22.184853,-10.902249],[22.17564100100003,-10.882899],[22.16700200100007,-10.866128],[22.18032500100003,-10.84807],[22.192601,-10.83323],[22.20571200100005,-10.823628000999975],[22.228181001000053,-10.811315],[22.242823001000033,-10.80257],[22.263944001000027,-10.792647],[22.281524,-10.784696],[22.297592,-10.78234200099996],[22.312694,-10.773804],[22.319084,-10.767203],[22.327299,-10.75164],[22.326839001000053,-10.730845],[22.326678,-10.705257],[22.314996,-10.676773],[22.309085,-10.653542],[22.321206001000064,-10.633773],[22.275629045000073,-10.625563621999959],[22.164098741000032,-10.59528636899995],[22.028186798000036,-10.625320434999935],[21.895933151000065,-10.629003524999973],[21.798423768000077,-10.626543998999978],[21.741165162000073,-10.763265609999962],[21.671155931000044,-10.916385650999928],[21.677528382000048,-11.058364867999956],[21.697513580000077,-11.138105391999943],[21.619497299000045,-11.168692588999932],[21.526496888000054,-11.162324904999934],[21.475141526000073,-11.202625274999946],[21.396585464000054,-11.225703238999927],[21.24891090500006,-11.269627570999944],[21.184236527000053,-11.325481414999956],[21.092081070000063,-11.382172584999978],[21.03545570500006,-11.446359633999975],[20.968009950000067,-11.472204207999937],[20.850324632000024,-11.462490081999931],[20.74013328600006,-11.445833205999975],[20.65436935500003,-11.397774695999942],[20.548341751000066,-11.343335151999952],[20.46174430800005,-11.304725646999941],[20.371265411000024,-11.290291785999955],[20.27023315400004,-11.245298385999945],[20.19140815700007,-11.210024833999967],[20.119256974000052,-11.26309585599995],[20.034610749000024,-11.262276648999944],[19.95107841600003,-11.276733397999976],[19.884471894000058,-11.273408889999928],[19.792335511000033,-11.293704032999926],[19.61555671800005,-11.25178432499996],[19.543411255000024,-11.309581756999933],[19.42049026500007,-11.395448684999963],[19.338352203000056,-11.413800239999944],[19.246784211000033,-11.43826484699997],[19.155216218000078,-11.474396705999936],[19.07920456000005,-11.644719123999948],[18.986532212000043,-11.764474868999969],[18.869165422000037,-11.877845763999971],[18.772605896000073,-12.133169173999931],[18.663827896000043,-12.279584884999963],[18.438777924000078,-12.450457572999937],[18.325813293000067,-12.65076255799994],[18.173995972000057,-12.814121245999956],[18.157581330000028,-12.981905936999965],[18.031274797000037,-13.151087760999928],[18.003463745000033,-13.337484359999962],[17.940956116000052,-13.522770881999975],[17.955053329000066,-13.566351890999954]]]}},{"type":"Feature","properties":{"shapeName":"Namibe","shapeISO":"AO-NAM","shapeID":"26408823B78028517006075","shapeGroup":"AGO","shapeType":"ADM1"},"geometry":{"type":"MultiPolygon","coordinates":[[[[11.702361107000058,-16.507638930999974],[11.669860841000059,-16.56736183199996],[11.685416222000072,-16.617082595999932],[11.703471184000023,-16.666250228999957],[11.73569393200006,-16.70736122099993],[11.73291778600003,-16.672082900999953],[11.729305268000076,-16.608194350999952],[11.717082024000035,-16.58347129799995],[11.723472595000032,-16.539583205999975],[11.708193779000055,-16.510139464999952],[11.702361107000058,-16.507638930999974]]],[[[12.34319496300003,-14.391805648999934],[12.34319496300003,-14.391805648999934]]],[[[12.546806336000031,-13.528206824999927],[12.542362214000036,-13.545139312999936],[12.554582596000046,-13.559583663999945],[12.550694467000028,-13.576526641999976],[12.533471108000072,-13.602360724999926],[12.534860611000056,-13.617916106999928],[12.539028169000062,-13.650417327999946],[12.530417443000033,-13.681527137999979],[12.53208255900006,-13.710416793999968],[12.530973435000021,-13.744305610999959],[12.525973320000048,-13.78180694599996],[12.525694847000068,-13.810694694999938],[12.522638321000045,-13.829028129999926],[12.523194314000023,-13.850693702999934],[12.50902652700006,-13.876806258999977],[12.49347209900003,-13.871526717999927],[12.467638016000024,-13.875140189999968],[12.431739808000032,-13.87597083999998],[12.425695419000022,-13.941528319999975],[12.399026871000046,-13.96569442699996],[12.387638092000032,-14.03736209899995],[12.360972404000051,-14.067084311999963],[12.370972633000065,-14.155415534999975],[12.333472253000025,-14.183194159999971],[12.355972290000068,-14.253749846999938],[12.367361069000026,-14.302360534999934],[12.352915765000034,-14.336250304999965],[12.358750344000043,-14.364862441999946],[12.34486103200004,-14.432916640999963],[12.335694313000033,-14.475137710999945],[12.32180500100003,-14.502362250999965],[12.312083244000064,-14.532916068999953],[12.311806679000028,-14.555952071999968],[12.29902839700003,-14.59263896899995],[12.292917252000052,-14.632916450999971],[12.295693398000026,-14.668750762999935],[12.270972252000035,-14.699028968999926],[12.284304620000057,-14.732083320999948],[12.287361145000034,-14.754860877999931],[12.263195038000049,-14.789861678999955],[12.24347209900003,-14.834304809999935],[12.209860803000026,-14.86680507699998],[12.201251031000027,-14.924027442999943],[12.175695420000068,-14.953193664999958],[12.157917023000039,-15.03013896899995],[12.134861947000047,-15.079029082999966],[12.11819362600005,-15.138193129999934],[12.155973435000021,-15.164304732999938],[12.12569522900003,-15.18597316699993],[12.090138436000075,-15.205415725999956],[12.062640190000025,-15.22458362599997],[12.053470613000059,-15.313750266999932],[12.035694122000052,-15.386249541999973],[12.030694008000069,-15.486527442999943],[12.019861221000042,-15.556250571999954],[11.998748779000039,-15.620972632999951],[11.955138207000061,-15.666251182999929],[11.909860612000045,-15.745416640999963],[11.891527176000068,-15.769860267999945],[11.81958198600006,-15.802083014999937],[11.844861984000033,-15.784583091999934],[11.80208301500005,-15.793749808999962],[11.777916909000055,-15.783471106999968],[11.746805192000068,-15.923472403999938],[11.799583436000034,-16.003471374999947],[11.79319381700003,-16.171249389999957],[11.816249847000051,-16.361249923999935],[11.823472024000068,-16.55986022899998],[11.818471909000039,-16.59930610699996],[11.82208442700005,-16.621805190999964],[11.82180595400007,-16.61736106899997],[11.82402896900004,-16.651250838999943],[11.827082635000068,-16.68652534499995],[11.823193551000031,-16.675971984999933],[11.819027902000073,-16.670974730999944],[11.814306259000034,-16.76375007599995],[11.806527138000035,-16.790971755999976],[11.779861451000045,-16.809858321999968],[11.79125023000006,-16.77458381699995],[11.774028778000059,-16.773471831999927],[11.781526566000025,-16.859304427999973],[11.764306069000042,-16.949028014999953],[11.749860764000061,-17.07597160299997],[11.751805305000062,-17.152082442999927],[11.752917290000028,-17.248193740999966],[11.808116,-17.268457],[11.857405,-17.24122000099993],[11.900245,-17.206746],[11.954543,-17.18203],[12.014955,-17.161641],[12.074248001000058,-17.145874],[12.111716,-17.157767],[12.142972001000032,-17.162264],[12.194409,-17.197518000999935],[12.249843001000045,-17.24007200099993],[12.311717,-17.23341],[12.371842001000061,-17.231578],[12.409887,-17.207122],[12.434148,-17.24281900099993],[12.450609001000032,-17.2547],[12.505960001000062,-17.245429],[12.545211001000041,-17.239211000999944],[12.598091,-17.234381],[12.626460001000055,-17.206178000999955],[12.677222001000075,-17.173548000999972],[12.71493600100007,-17.168662],[12.770158,-17.131502000999944],[12.836371001000032,-17.086829],[12.872939001000077,-17.047042000999966],[12.94748,-17.018321],[12.984047,-16.98205],[13.090239,-16.979882],[13.153824001000032,-16.965003],[13.199978001000034,-16.977883],[13.238766001000045,-16.995537000999946],[13.301685001000067,-16.988362000999928],[13.209263803000056,-16.779258727999945],[13.22623825100004,-16.599508285999946],[13.225445748000027,-16.433101653999927],[13.303623199000072,-16.379203795999956],[13.382315636000044,-16.339193343999966],[13.53958416100005,-16.192485808999947],[13.571913719000065,-15.89523029299994],[13.558895112000073,-15.613005637999947],[13.430239677000031,-15.384634017999929],[13.310993195000037,-15.322377204999952],[13.23876285700004,-15.209019660999957],[13.284611703000053,-15.022363662999965],[13.367359161000024,-14.849084853999955],[13.624890328000049,-14.607408523999936],[13.686079979000056,-14.395012855999937],[13.60109615400006,-14.224168776999932],[13.632866859000046,-13.97704601299995],[13.476443292000056,-13.823052405999931],[13.295001984000066,-13.686895369999945],[13.218829156000027,-13.540015220999976],[13.033669473000032,-13.566238402999943],[12.733259202000056,-13.552720069999964],[12.546806336000031,-13.528206824999927]]]]}},{"type":"Feature","properties":{"shapeName":"Uíge","shapeISO":"AO-UIG","shapeID":"26408823B906914650007","shapeGroup":"AGO","shapeType":"ADM1"},"geometry":{"type":"Polygon","coordinates":[[[14.868301393000024,-8.349517821999939],[14.906982423000045,-8.283619880999936],[15.016243935000034,-8.315305709999961],[15.123523712000065,-8.296961783999961],[15.178641319000064,-8.228867530999935],[15.230102540000075,-8.091293334999932],[15.202054977000046,-8.019867896999926],[15.31205654200005,-7.935376166999959],[15.462655067000071,-8.041003226999976],[15.592122079000035,-8.039899825999953],[15.719614984000032,-8.00516319299993],[15.747111320000045,-8.071323394999979],[15.79481983200003,-8.105511664999938],[15.822087288000034,-8.214753150999968],[16.07733154300007,-8.14085388199993],[16.133377075000055,-7.902914046999967],[16.11682128900003,-7.582118033999961],[16.343141557000024,-7.441445826999939],[16.628627777000077,-7.328200816999981],[16.80189895600006,-7.575075149999975],[16.97163009700006,-7.547453879999978],[17.095195770000032,-7.379370212999959],[17.06857300100006,-7.344312],[17.030055,-7.304337],[16.976342,-7.288112],[16.940334001000053,-7.23453],[16.936408,-7.181223],[16.91714,-7.101134000999934],[16.95335,-7.113591],[16.961177,-7.049276],[16.90651800100005,-7.02702],[16.91747,-6.975142],[16.905889,-6.927518],[16.866531,-6.876518000999965],[16.840498,-6.844193],[16.802177,-6.794577],[16.763608001000023,-6.710827],[16.752796,-6.638032000999942],[16.731116,-6.575552],[16.746047,-6.514613],[16.719531,-6.465646],[16.700591,-6.417091],[16.694483,-6.391123000999926],[16.695143001000076,-6.353936],[16.712092,-6.339059],[16.703451001000076,-6.266939],[16.705790001000025,-6.200671],[16.718069,-6.148908],[16.663194001000022,-6.105790000999946],[16.635776001000067,-6.091197],[16.602619,-6.061826],[16.620929,-6.029464000999951],[16.595286,-6.002276000999927],[16.601572001000022,-5.9558],[16.578481001000057,-5.931614],[16.560856,-5.871634000999961],[16.51650500100004,-5.855093],[16.462388001000022,-5.845978],[16.430761,-5.868651000999932],[16.41435400100005,-5.868167000999961],[16.40099,-5.866115000999969],[16.38974600100005,-5.861198],[15.680059001000075,-5.861875],[14.786399842000037,-5.935649871999942],[14.891221047000045,-6.193505763999951],[14.886594772000024,-6.380165099999942],[14.792645454000024,-6.53739023199995],[14.612230301000068,-6.603818892999925],[14.50099086800003,-6.653563022999947],[14.414714814000035,-6.681355],[14.300689698000042,-6.709436892999975],[14.232175828000038,-6.818870067999967],[14.049503327000025,-6.881401061999952],[13.948784828000043,-6.960019111999941],[13.851960182000028,-6.963418006999973],[13.898107530000061,-7.164418220999949],[13.86305236800007,-7.354990004999934],[13.950388908000036,-7.504840850999926],[13.841981889000067,-7.58037090299996],[14.071067810000045,-7.632270812999934],[14.21536541000006,-7.729936122999959],[14.457100869000044,-7.906208991999961],[14.723778726000035,-7.901758193999967],[14.651880264000056,-8.20525169399997],[14.733773232000033,-8.406268119999936],[14.840702058000034,-8.376546859999962],[14.868301393000024,-8.349517821999939]]]}},{"type":"Feature","properties":{"shapeName":"Zaire","shapeISO":"AO-ZAI","shapeID":"26408823B68708736810578","shapeGroup":"AGO","shapeType":"ADM1"},"geometry":{"type":"Polygon","coordinates":[[[13.824855805000027,-7.619830131999947],[13.939605713000049,-7.521513938999931],[13.884673120000059,-7.371945857999947],[13.920025827000075,-7.175247191999972],[13.815908433000061,-6.968441009999935],[13.940202714000065,-6.965299128999959],[14.029273033000038,-6.888902186999928],[14.198890687000073,-6.825261115999979],[14.282394410000052,-6.719437121999931],[14.39137745000005,-6.676365851999947],[14.491843224000036,-6.65800523799993],[14.598341942000047,-6.604100226999947],[14.787656784000035,-6.545447825999929],[14.871911049000062,-6.408493995999947],[14.908519745000035,-6.215446948999954],[14.820926667000037,-5.979269980999959],[14.505400001000055,-5.887366],[14.326613,-5.88737200099996],[14.308192,-5.881844],[14.293542,-5.86061700099998],[14.274098,-5.86559000099993],[14.25679000100007,-5.873102],[14.230525001000046,-5.872064000999956],[14.219024,-5.866486000999942],[14.202356,-5.87019],[14.193561,-5.858457],[14.185566,-5.84466600099995],[14.169545001000074,-5.845753],[14.160377001000029,-5.844817],[14.143548001000056,-5.842735000999937],[14.131292,-5.837244],[14.102277,-5.837449000999925],[14.069292,-5.846043],[14.038171,-5.848748],[14.017296001000034,-5.839353],[13.99968300100005,-5.830712],[13.587086001000046,-5.867939],[13.563438,-5.883528],[13.529641,-5.870954000999973],[13.49532,-5.868312],[13.388130001000036,-5.870704],[13.318718,-5.895472],[13.124968,-5.902048],[13.025454,-5.870057000999964],[12.871738,-5.939382],[12.752333,-5.977179000999968],[12.587213,-6.035305],[12.322361946000058,-6.084859847999951],[12.27847194800006,-6.153748988999951],[12.42874908400006,-6.397082805999958],[12.559305192000068,-6.642362117999937],[12.603194237000025,-6.711526870999933],[12.710694313000033,-6.823471068999936],[12.755694389000041,-6.890694140999926],[12.804582597000035,-6.950973033999958],[12.831526757000063,-6.997638225999935],[12.837639809000052,-7.079306125999949],[12.846529008000061,-7.169582843999933],[12.853472710000062,-7.227639197999963],[12.88069534300007,-7.299304007999979],[12.919028283000046,-7.355972766999969],[12.935390472000051,-7.422639846999971],[12.950971604000074,-7.459581851999928],[12.977359773000046,-7.534584044999974],[13.004028321000021,-7.577083110999979],[13.011251451000021,-7.614027976999978],[13.032360078000067,-7.670415877999972],[13.059304238000038,-7.723750113999927],[13.060137749000035,-7.752915858999927],[13.178588868000077,-7.783323764999977],[13.263409615000057,-7.73796510699998],[13.399591446000045,-7.691564082999946],[13.513023377000025,-7.736268043999928],[13.63560581300004,-7.697463988999971],[13.729235649000032,-7.675054072999956],[13.799701692000042,-7.634820937999962],[13.824855805000027,-7.619830131999947]]]}}]}